#dP2020  3 19  0  0  0.00000000      96 __u+U ITR00 FIT  IAC
## 2097 345600.00000000   900.00000000 58927 0.0000000000000
+  116   C01C02C03C04C05C06C07C08C09C10C11C12C13C14C16C18C19
+        C20C21C22C23C24C25C26C27C28C29C30C32C33C34C35C36C37
+        E01E02E03E04E05E07E08E09E11E12E13E14E15E18E21E24E25
+        E26E27E30E31E33E36G01G02G03G04G05G06G07G08G09G10G11
+        G12G13G14G15G16G17G18G19G20G21G22G23G24G25G26G27G28
+        G29G30G31G32J01J02J03J07R01R02R03R04R05R07R08R09R11
+        R12R13R14R15R16R17R18R19R20R21R22R23R24R26  0  0  0
++        13 12 13 13 12  9  8  8  8  8  9  8  8  8  9 15  7
++         7  8  7  8  8  8  8  8  8  8  7  8  8  8  8  8  8
++         4  4  5  4  5  4  4  4  5  5  5  5  5  4  4  4  5
++         4  5  5  5  4  5  3  4  3  3  4  3  3  3  3  3  4
++         3  4  4  4  3  3  4  3  3  3  3  4  3  3  3  3  3
++         4  3  0  3  9  9  8 13  6  5  5  5  6  5  5  6  6
++         6  6  5  5  6  5  5  6  6  6  6  6  6  8  0  0  0
%c M  cc GPS ccc cccc cccc cccc cccc ccccc ccccc ccccc ccccc
%c cc cc ccc ccc cccc cccc cccc cccc ccccc ccccc ccccc ccccc
%f  0.0000000  0.000000000  0.00000000000  0.000000000000000
%f  0.0000000  0.000000000  0.00000000000  0.000000000000000
%i    0    0    0    0      0      0      0      0         0
%i    0    0    0    0      0      0      0      0         0
/* INFORMATION & ANALYSIS CENTER (IAC)            RAPID DATA
/* S/V CLOCKS ARE ALIGNED TO GNSS TIME                      
/* G:C1WC2W R:C1PC2P E:C1XC5X C:C2IC6I J:C1CC2S             
/* PCV:IGS14_2091 OL/AL:FES2004  NONE     YN ORB:CoN CLK:CoN
*  2020 03 19  9 30  0.00000000
PC01 -32282.474141  27085.925728    997.087695    330.951230
PC02   4389.378457  41921.723969   -828.444567    473.047394
PC03 -14727.784644  39468.366267    146.523401    109.233488
PC04 -39603.786935  14451.716510    643.107640   -181.828775
PC05  21849.688619  36001.090159  -1141.330900   -150.284538
PC06  -8386.982566  24665.364989 -32689.712934    240.938753
PC07 -23543.943960  27183.588827  21807.069679    930.054663
PC08 -15159.246041  38052.355075  10779.555114   -161.856749
PC09   5308.525821  32440.821753 -25944.989511    412.061295
PC10  -8949.933290  28536.916485  29750.116096   -769.942201
PC11 -18168.056303  -4654.267946  20709.634251   -249.414211
PC12 -17044.942964 -21106.208780   6531.876529    334.419119
PC13  -6559.098469  41673.537407  -3024.391610    331.906124
PC14 -27872.966648    371.356207   -203.885015    213.809017
PC16  -3662.239483  27147.296802 -31932.203015   -719.162166
PC18 -34291.763362  24552.619315    159.848067   -687.262134
PC19  25521.535191  -6639.815714   9180.040134    356.282513
PC20  26215.518883   5304.418077  -7989.622638   -890.179888
PC21 -11217.674423 -14549.671568  21021.470814   -189.159719
PC22  10036.714236 -14936.452986  21345.201177   -866.947127
PC23 -11929.844766  25007.476161   3336.854427   -928.618152
PC24 -15704.815802  -4911.540203 -22551.723227   -895.234601
PC25 -19231.876229  15168.964733 -13395.550291   -553.394337
PC26  -3684.392600 -20511.757681 -18550.006649    612.083340
PC27  11960.451543  25067.225197   2559.468619    297.799732
PC28  -2402.136627  21207.295492  17984.638365    288.759257
PC29  15099.237524  -5560.587622 -22802.875154    202.979783
PC30  19770.942644  13765.690180 -14061.181207    288.942137
PC32  11385.431629  14449.208968 -20968.029840   -901.344306
PC33 -25511.206493   6707.971698  -9071.203395   -904.953910
PC34 -19789.908695 -13474.562243  14357.554007   -559.953264
PC35   1818.025499 -21239.319179 -18027.443267   -932.603453
PC36  19603.266917 -14503.174026  13589.256711   -821.775655
PC37   2669.512621  21016.938785  18184.784824   -855.831986
PE01  14887.661779 -21672.127456 -13592.913598   -817.861526
PE02 -14843.745688  21681.264244  13641.421458    120.417131
PE03  -5398.276737  16317.276004 -24098.487700   -278.423970
PE04 -15315.104267 -19548.738797  16114.990115   -488.038341
PE05 -23204.458285   3471.663593 -18042.894163   -395.996984
PE07  27323.599550  11298.054626   1503.978730   -356.220417
PE08  15684.214175  19326.014887 -16026.555317   6204.652877
PE09 -27396.927709 -11074.646144  -1573.532489   6120.856635
PE11 -15860.283807 -11925.895155  21971.762978   1809.093815
PE12  -7688.961073 -27694.485805   7136.822721   5896.959507
PE13  15789.012704  12114.502817 -21896.534878    399.344189
PE14  -5923.993685 -24667.333801 -16530.743927   -945.821253
PE15   7882.667959  27569.902680  -7312.413568    873.476067
PE18  17796.109142  20488.453357   2235.674158  -1043.951800
PE21  25472.483356 -14302.058304   4749.581733   -588.748798
PE24 -21244.489991  -1845.430870 -20555.643205   5552.606108
PE25 -25501.256658  14225.476146  -4868.559173   -507.115897
PE26  14550.375157 -10754.814062 -23416.774931   3402.198283
PE27  21277.938540   1601.940515  20508.663881    259.147776
PE30   4301.302479  16680.753853  24060.470504   4055.337964
PE31  -4615.362846 -16482.221658 -24147.030711   -472.035492
PE33   4638.608800 -26859.051861 -11547.465257   -469.339339
PE36 -14440.518671  10439.869926  23644.118079    584.129932
PG01 -13783.695104  16122.357699  15560.558675   -330.786734
PG02  13793.835105   7615.082200 -20754.065030   -424.508205
PG03 -21771.104174  13157.863837  -7513.720783   -121.864071
PG04 -12612.590104   8934.416800 -21593.244123    -64.321090
PG05  23773.027465    114.286664 -12176.224202     -9.370487
PG06   8143.500836  18670.263395 -16968.899651   -234.273465
PG07  -5147.719863  25783.282822     -5.798645   -239.113192
PG08 -20146.944406  -1235.937366  17415.991572    -27.624304
PG09  -2058.946984  17049.929868 -20310.411299   -179.703591
PG10  -5362.255756 -14185.237173  21890.674580   -282.230342
PG11 -14870.451564   6136.481687  20657.104021   -329.780826
PG12  23632.853342 -10542.613482  -5802.097009    139.034523
PG13  20968.031038  10058.152709  12786.631138     -4.641314
PG14 -18546.600990 -19153.973773    490.548742    -25.335514
PG15  20304.263505  -1358.828229  16950.416899   -243.951927
PG16 -24106.522750  -1966.177074 -11697.031296   -136.713802
PG17  12509.033424  21351.323487  10134.480800    234.540147
PG18   9872.075482 -23705.241667  -6768.442373    123.943195
PG19  17530.773886  19875.701464   1469.920524   -183.768250
PG20   6112.073717 -18201.088239  18182.635813    527.862804
PG21   2144.652736 -26605.336525   1464.500347    -25.789705
PG22 -24629.175193   9641.240344   1716.344594   -785.452348
PG23 -12146.440732   9843.242250 -21135.238609   -128.638747
PG24  14205.220115 -14580.078989  16672.633141    -10.544347
PG25  15034.481144 -16121.668257 -14847.521269     -8.261400
PG26 -17359.024387  -7679.372905 -18696.535781    170.515565
PG27 -22468.751005 -11144.548225   9111.828168   -242.697559
PG28   5543.360326  14136.343784  22372.812394    731.822281
PG29   4627.437174 -15224.479012 -21299.187461    -60.173386
PG30   2328.668912  24254.855468  10350.379401   -178.812128
PG31      0.000000      0.000000      0.000000 999999.999999
PG32 -14416.759268 -20517.058371   9045.469438    239.740719
PJ01 -30350.422195  18119.915226 -18400.609116   -342.142101
PJ02 -28623.546286  30895.604997   2101.672258     -1.928207
PJ03 -25844.073390  22572.707975  29566.951788     -1.237642
PJ07 -25416.238400  33637.349261    -48.439661      0.075093
PR01  14088.611576  -7427.448780  19933.978421     58.759871
PR02  -8475.633956 -11723.545797  21065.459011    417.469921
PR03 -22687.165004  -8222.504856   8384.410878     11.796124
PR04 -23869.561766    -77.170980  -8970.420169     42.517594
PR05 -11580.370194   8003.038568 -21264.972196     47.031581
PR07  22929.751809   7971.769693  -7728.603629    -34.508721
PR08  23856.401174     14.813929   9066.201088    -51.128236
PR09     94.801800  15351.155960  20361.598300    122.653908
PR11  18397.325851 -11953.866583  13056.645072    -17.232792
PR12  15158.296422 -20243.270470  -3203.187210    115.240582
PR13   2890.720057 -17284.456744 -18555.982445    -36.241692
PR14 -10824.447672  -4106.052539 -22722.655053     49.273823
PR15 -18242.633462  11282.699249 -13795.696577    106.167511
PR16 -14587.349330  20684.572844   3643.335786     -2.201343
PR17 -12723.217002 -17365.156092  13672.019318    310.249296
PR18 -11341.234134  -1258.277484  22838.291375     29.014301
PR19  -4443.416088  15231.160143  19975.928122    -84.479894
PR20   6069.544511  24452.375481   3827.366960   -406.948176
PR21  12757.251791  16768.016622 -14388.929561   -112.254043
PR22  10390.184464  -1773.676455 -23213.703389    -18.446501
PR23    553.252863 -20074.832135 -15736.949482    293.524988
PR24  -7708.524428 -24292.846486  -1342.983743    -48.405959
PR26   4357.232647  23795.438389   8139.049726   -403.468877
EOF
